{
    "links": {
        "self": "http://www.neowsapp.com/rest/v1/neo/3067559?api_key=iIulBulltgU6a56xZRHN4H3l9WmuAYTsLGpBGhQ2"
    },
    "id": "3067559",
    "neo_reference_id": "3067559",
    "name": "(2000 SE8)",
    "designation": "2000 SE8",
    "nasa_jpl_url": "http://ssd.jpl.nasa.gov/sbdb.cgi?sstr=3067559",
    "absolute_magnitude_h": 23.0,
    "estimated_diameter": {
        "kilometers": {
            "estimated_diameter_min": 0.0667659413,
            "estimated_diameter_max": 0.1492931834
        },
        "meters": {
            "estimated_diameter_min": 66.7659413495,
            "estimated_diameter_max": 149.2931834393
        },
        "miles": {
            "estimated_diameter_min": 0.0414864197,
            "estimated_diameter_max": 0.0927664547
        },
        "feet": {
            "estimated_diameter_min": 219.0483710172,
            "estimated_diameter_max": 489.807047955
        }
    },
    "is_potentially_hazardous_asteroid": false,
    "close_approach_data": [
        {
            "close_approach_date": "2000-09-11",
            "close_approach_date_full": "2000-Sep-11 06:17",
            "epoch_date_close_approach": 968653020000,
            "relative_velocity": {
                "kilometers_per_second": "8.4547587969",
                "kilometers_per_hour": "30437.131668916",
                "miles_per_hour": "18912.4499528329"
            },
            "miss_distance": {
                "astronomical": "0.0283488742",
                "lunar": "11.0277120638",
                "kilometers": "4240931.197217954",
                "miles": "2635192.4504536052"
            },
            "orbiting_body": "Earth"
        },
        {
            "close_approach_date": "2004-07-02",
            "close_approach_date_full": "2004-Jul-02 07:03",
            "epoch_date_close_approach": 1088751780000,
            "relative_velocity": {
                "kilometers_per_second": "17.7384692149",
                "kilometers_per_hour": "63858.4891736692",
                "miles_per_hour": "39679.1817868279"
            },
            "miss_distance": {
                "astronomical": "0.3017570365",
                "lunar": "117.3834871985",
                "kilometers": "45142209.917912255",
                "miles": "28050068.544028919"
            },
            "orbiting_body": "Earth"
        }
    ],
    "orbital_data": {
        "orbit_id": "13",
        "orbit_determination_date": "2017-04-06 09:16:50",
        "first_observation_date": "2000-09-20",
        "last_observation_date": "2000-12-01",
        "data_arc_in_days": 72,
        "observations_used": 40,
        "orbit_uncertainty": "7",
        "minimum_orbit_intersection": ".00723087",
        "jupiter_tisserand_invariant": "3.205",
        "epoch_osculation": "2459000.5",
        "eccentricity": ".5972230913231632",
        "semi_major_axis": "2.481560464661548",
        "inclination": ".6505597304855901",
        "ascending_node_longitude": "99.09367650939967",
        "orbital_period": "1427.86030134584",
        "perihelion_distance": ".9995152526510329",
        "perihelion_argument": "234.361078719427",
        "aphelion_distance": "3.963605676672063",
        "perihelion_time": "2458939.196633512419",
        "mean_anomaly": "15.45614225336156",
        "mean_motion": ".2521255053177677",
        "equinox": "J2000",
        "orbit_class": {
            "orbit_class_type": "APO",
            "orbit_class_description": "Near-Earth asteroid orbits which cross the Earth’s orbit similar to that of 1862 Apollo",
            "orbit_class_range": "a (semi-major axis) > 1.0 AU; q (perihelion) < 1.017 AU"
        }
    },
    "is_sentry_object": false
}